{"type": "FeatureCollection", "features": [ {"type": "Feature", "properties": {"norad_id": 34823, "name": "COSMOS 2251 DEB", "group": "cosmos-2251-debris", "lat": 5.643730881031111, "lon": 87.50522726816777, "alt_km": 815.3915106271206, "timestamp": "2025-12-21T09:37:23.050174+00:00", "meta": {"OBJECT_NAME": "COSMOS 2251 DEB", "OBJECT_ID": "1993-036ABN", "EPOCH": "2025-12-20T12:08:33.613440", "MEAN_MOTION": 14.5497594, "ECCENTRICITY": 0.01541862, "INCLINATION": 74.0426, "RA_OF_ASC_NODE": 87.5785, "ARG_OF_PERICENTER": 170.4185, "MEAN_ANOMALY": 189.9981, "EPHEMERIS_TYPE": 0, "CLASSIFICATION_TYPE": "U", "NORAD_CAT_ID": 34823, "ELEMENT_SET_NO": 999, "REV_AT_EPOCH": 88494, "BSTAR": 0.00040573854, "MEAN_MOTION_DOT": 2.017e-05, "MEAN_MOTION_DDOT": 0}, "tle": {"line1": "1 34823U 93036ABN 25354.50594460  .00002017  00000+0  40574-3 0  9995", "line2": "2 34823  74.0426  87.5785 0154186 170.4185 189.9981 14.54975940884942"}}, "geometry": {"type": "Point", "coordinates": [87.50522726816777, 5.643730881031111]}}, {"type": "Feature", "properties": {"norad_id": 34845, "name": "COSMOS 2251 DEB", "group": "cosmos-2251-debris", "lat": 48.97911139227641, "lon": 151.41066098486152, "alt_km": 742.4269436480736, "timestamp": "2025-12-21T09:37:23.050184+00:00", "meta": {"OBJECT_NAME": "COSMOS 2251 DEB", "OBJECT_ID": "1993-036ABP", "EPOCH": "2025-12-19T17:31:51.884832", "MEAN_MOTION": 14.45872035, "ECCENTRICITY": 0.00225932, "INCLINATION": 74.0244, "RA_OF_ASC_NODE": 135.3011, "ARG_OF_PERICENTER": 295.1391, "MEAN_ANOMALY": 64.7423, "EPHEMERIS_TYPE": 0, "CLASSIFICATION_TYPE": "U", "NORAD_CAT_ID": 34845, "ELEMENT_SET_NO": 999, "REV_AT_EPOCH": 87567, "BSTAR": 0.00020260782, "MEAN_MOTION_DOT": 6.95e-06, "MEAN_MOTION_DDOT": 0}, "tle": {"line1": "1 34845U 93036ABP 25353.73046163  .00000695  00000+0  20261-3 0  9996", "line2": "2 34845  74.0244 135.3011 0022593 295.1391  64.7423 14.45872035875670"}}, "geometry": {"type": "Point", "coordinates": [151.41066098486152, 48.97911139227641]}}, {"type": "Feature", "properties": {"norad_id": 34846, "name": "COSMOS 2251 DEB", "group": "cosmos-2251-debris", "lat": 32.24488557584426, "lon": -104.01461583774935, "alt_km": 730.0282083058446, "timestamp": "2025-12-21T09:37:23.050194+00:00", "meta": {"OBJECT_NAME": "COSMOS 2251 DEB", "OBJECT_ID": "1993-036ABQ", "EPOCH": "2025-12-21T02:49:56.088192", "MEAN_MOTION": 14.47257231, "ECCENTRICITY": 0.002622, "INCLINATION": 74.0305, "RA_OF_ASC_NODE": 246.1072, "ARG_OF_PERICENTER": 311.4658, "MEAN_ANOMALY": 48.4249, "EPHEMERIS_TYPE": 0, "CLASSIFICATION_TYPE": "U", "NORAD_CAT_ID": 34846, "ELEMENT_SET_NO": 999, "REV_AT_EPOCH": 87525, "BSTAR": 0.00048116, "MEAN_MOTION_DOT": 1.74e-05, "MEAN_MOTION_DDOT": 0}, "tle": {"line1": "1 34846U 93036ABQ 25355.11801028  .00001740  00000+0  48116-3 0  9991", "line2": "2 34846  74.0305 246.1072 0026220 311.4658  48.4249 14.47257231875252"}}, "geometry": {"type": "Point", "coordinates": [-104.01461583774935, 32.24488557584426]}}, {"type": "Feature", "properties": {"norad_id": 34852, "name": "COSMOS 2251 DEB", "group": "cosmos-2251-debris", "lat": 37.222109110765466, "lon": 54.48204393159447, "alt_km": 775.8298886604834, "timestamp": "2025-12-21T09:37:23.050204+00:00", "meta": {"OBJECT_NAME": "COSMOS 2251 DEB", "OBJECT_ID": "1993-036ABW", "EPOCH": "2025-12-19T23:33:13.329792", "MEAN_MOTION": 14.3701024, "ECCENTRICITY": 0.0016506, "INCLINATION": 74.0326, "RA_OF_ASC_NODE": 249.654, "ARG_OF_PERICENTER": 351.2067, "MEAN_ANOMALY": 8.8795, "EPHEMERIS_TYPE": 0, "CLASSIFICATION_TYPE": "U", "NORAD_CAT_ID": 34852, "ELEMENT_SET_NO": 999, "REV_AT_EPOCH": 87638, "BSTAR": 8.7686e-05, "MEAN_MOTION_DOT": 2.34e-06, "MEAN_MOTION_DDOT": 0}, "tle": {"line1": "1 34852U 93036ABW 25353.98140428  .00000234  00000+0  87686-4 0  9994", "line2": "2 34852  74.0326 249.6540 0016506 351.2067   8.8795 14.37010240876389"}}, "geometry": {"type": "Point", "coordinates": [54.48204393159447, 37.222109110765466]}}, {"type": "Feature", "properties": {"norad_id": 34854, "name": "COSMOS 2251 DEB", "group": "cosmos-2251-debris", "lat": -18.599897627063438, "lon": -32.865130480932045, "alt_km": 615.9262548467268, "timestamp": "2025-12-21T09:37:23.050214+00:00", "meta": {"OBJECT_NAME": "COSMOS 2251 DEB", "OBJECT_ID": "1993-036ABY", "EPOCH": "2025-12-20T16:27:30.286080", "MEAN_MOTION": 14.76695376, "ECCENTRICITY": 0.00660109, "INCLINATION": 74.029, "RA_OF_ASC_NODE": 143.0056, "ARG_OF_PERICENTER": 253.0888, "MEAN_ANOMALY": 106.3042, "EPHEMERIS_TYPE": 0, "CLASSIFICATION_TYPE": "U", "NORAD_CAT_ID": 34854, "ELEMENT_SET_NO": 999, "REV_AT_EPOCH": 71999, "BSTAR": 0.00047616561, "MEAN_MOTION_DOT": 3.419e-05, "MEAN_MOTION_DDOT": 0}, "tle": {"line1": "1 34854U 93036ABY 25354.68576720  .00003419  00000+0  47617-3 0  9999", "line2": "2 34854  74.0290 143.0056 0066010 253.0888 106.3042 14.76695376719999"}}, "geometry": {"type": "Point", "coordinates": [-32.865130480932045, -18.599897627063438]}}, {"type": "Feature", "properties": {"norad_id": 34856, "name": "COSMOS 2251 DEB", "group": "cosmos-2251-debris", "lat": 59.70514561471764, "lon": -142.38461322922407, "alt_km": 539.8699231710352, "timestamp": "2025-12-21T09:37:23.050224+00:00", "meta": {"OBJECT_NAME": "COSMOS 2251 DEB", "OBJECT_ID": "1993-036ACA", "EPOCH": "2025-12-19T06:24:00.092736", "MEAN_MOTION": 15.06389388, "ECCENTRICITY": 0.0032064, "INCLINATION": 73.9981, "RA_OF_ASC_NODE": 71.4246, "ARG_OF_PERICENTER": 208.487, "MEAN_ANOMALY": 218.2947, "EPHEMERIS_TYPE": 0, "CLASSIFICATION_TYPE": "U", "NORAD_CAT_ID": 34856, "ELEMENT_SET_NO": 999, "REV_AT_EPOCH": 89210, "BSTAR": 0.001117, "MEAN_MOTION_DOT": 0.00016644, "MEAN_MOTION_DDOT": 0}, "tle": {"line1": "1 34856U 93036ACA 25353.26666774  .00016644  00000+0  11170-2 0  9991", "line2": "2 34856  73.9981  71.4246 0032064 208.4870 218.2947 15.06389388892107"}}, "geometry": {"type": "Point", "coordinates": [-142.38461322922407, 59.70514561471764]}}, {"type": "Feature", "properties": {"norad_id": 34857, "name": "COSMOS 2251 DEB", "group": "cosmos-2251-debris", "lat": 73.99793317079045, "lon": -177.79058585062066, "alt_km": 713.8694039607753, "timestamp": "2025-12-21T09:37:23.050234+00:00", "meta": {"OBJECT_NAME": "COSMOS 2251 DEB", "OBJECT_ID": "1993-036ACB", "EPOCH": "2025-12-20T17:26:39.242976", "MEAN_MOTION": 14.58964843, "ECCENTRICITY": 0.00655314, "INCLINATION": 74.0163, "RA_OF_ASC_NODE": 91.5945, "ARG_OF_PERICENTER": 214.6118, "MEAN_ANOMALY": 297.3393, "EPHEMERIS_TYPE": 0, "CLASSIFICATION_TYPE": "U", "NORAD_CAT_ID": 34857, "ELEMENT_SET_NO": 999, "REV_AT_EPOCH": 88017, "BSTAR": 0.00067435995, "MEAN_MOTION_DOT": 3.23e-05, "MEAN_MOTION_DDOT": 0}, "tle": {"line1": "1 34857U 93036ACB 25354.72684309  .00003230  00000+0  67436-3 0  9992", "line2": "2 34857  74.0163  91.5945 0065531 214.6118 297.3393 14.58964843880178"}}, "geometry": {"type": "Point", "coordinates": [-177.79058585062066, 73.99793317079045]}}, {"type": "Feature", "properties": {"norad_id": 34859, "name": "COSMOS 2251 DEB", "group": "cosmos-2251-debris", "lat": 3.0922025958179304, "lon": -37.490875850228214, "alt_km": 518.8922744647434, "timestamp": "2025-12-21T09:37:23.050244+00:00", "meta": {"OBJECT_NAME": "COSMOS 2251 DEB", "OBJECT_ID": "1993-036ACD", "EPOCH": "2025-12-20T00:39:03.765024", "MEAN_MOTION": 15.15832734, "ECCENTRICITY": 0.00020914, "INCLINATION": 74.0278, "RA_OF_ASC_NODE": 324.4843, "ARG_OF_PERICENTER": 20.5726, "MEAN_ANOMALY": 48.6407, "EPHEMERIS_TYPE": 0, "CLASSIFICATION_TYPE": "U", "NORAD_CAT_ID": 34859, "ELEMENT_SET_NO": 999, "REV_AT_EPOCH": 88469, "BSTAR": 0.0027292363, "MEAN_MOTION_DOT": 0.00052535, "MEAN_MOTION_DDOT": 0}, "tle": {"line1": "1 34859U 93036ACD 25354.02712691  .00052535  00000+0  27292-2 0  9990", "line2": "2 34859  74.0278 324.4843 0002091  20.5726  48.6407 15.15832734884694"}}, "geometry": {"type": "Point", "coordinates": [-37.490875850228214, 3.0922025958179304]}}, {"type": "Feature", "properties": {"norad_id": 34861, "name": "COSMOS 2251 DEB", "group": "cosmos-2251-debris", "lat": -54.325333510505565, "lon": -123.31897900957765, "alt_km": 568.7449954361955, "timestamp": "2025-12-21T09:37:23.050253+00:00", "meta": {"OBJECT_NAME": "COSMOS 2251 DEB", "OBJECT_ID": "1993-036ACF", "EPOCH": "2025-12-21T04:01:36.631776", "MEAN_MOTION": 15.03034303, "ECCENTRICITY": 0.0007995, "INCLINATION": 74.0181, "RA_OF_ASC_NODE": 33.6281, "ARG_OF_PERICENTER": 23.2733, "MEAN_ANOMALY": 33.2234, "EPHEMERIS_TYPE": 0, "CLASSIFICATION_TYPE": "U", "NORAD_CAT_ID": 34861, "ELEMENT_SET_NO": 999, "REV_AT_EPOCH": 88219, "BSTAR": 0.0014553, "MEAN_MOTION_DOT": 0.00019631, "MEAN_MOTION_DDOT": 0}, "tle": {"line1": "1 34861U 93036ACF 25355.16778509  .00019631  00000+0  14553-2 0  9995", "line2": "2 34861  74.0181  33.6281 0007995  23.2733  33.2234 15.03034303882195"}}, "geometry": {"type": "Point", "coordinates": [-123.31897900957765, -54.325333510505565]}}, {"type": "Feature", "properties": {"norad_id": 34874, "name": "COSMOS 2251 DEB", "group": "cosmos-2251-debris", "lat": -72.33393115292704, "lon": -6.111927385687514, "alt_km": 812.119938762763, "timestamp": "2025-12-21T09:37:23.050263+00:00", "meta": {"OBJECT_NAME": "COSMOS 2251 DEB", "OBJECT_ID": "1993-036ACM", "EPOCH": "2025-12-19T15:14:26.431296", "MEAN_MOTION": 14.36339936, "ECCENTRICITY": 0.0050622, "INCLINATION": 74.0394, "RA_OF_ASC_NODE": 61.1016, "ARG_OF_PERICENTER": 84.2082, "MEAN_ANOMALY": 65.9606, "EPHEMERIS_TYPE": 0, "CLASSIFICATION_TYPE": "U", "NORAD_CAT_ID": 34874, "ELEMENT_SET_NO": 999, "REV_AT_EPOCH": 87143, "BSTAR": 0.00053501, "MEAN_MOTION_DOT": 1.563e-05, "MEAN_MOTION_DDOT": 0}, "tle": {"line1": "1 34874U 93036ACM 25353.63502814  .00001563  00000+0  53501-3 0  9995", "line2": "2 34874  74.0394  61.1016 0050622  84.2082  65.9606 14.36339936871431"}}, "geometry": {"type": "Point", "coordinates": [-6.111927385687514, -72.33393115292704]}}]}